NORAD_CAT_ID,OBJECT_NAME,OBJECT_TYPE,EPOCH,MEAN_MOTION,ECCENTRICITY,INCLINATION,RA_OF_ASC_NODE,ARG_OF_PERICENTER,MEAN_ANOMALY,BSTAR,MEAN_MOTION_DOT,MEAN_MOTION_DDOT,TLE_LINE0,TLE_LINE1,TLE_LINE2,SEMIMAJOR_AXIS,PERIOD,APOGEE,PERIGEE,DECAYED
56774.0,STARLINK-6190,PAYLOAD,2023-12-10 21:42:35,14.98332014,0.0002537,70.0007,271.3296,272.82,87.2669,2.3093e-05,1.83e-06,0.0,0 STARLINK-6190,1 56774U 23078H   23344.90458188  .00000183  00000-0  23093-4 0  9991,2 56774  70.0007 271.3296 0002537 272.8200  87.2669 14.98332014 29399,6950.187,96.107,573.815,570.288,0.0
56774.0,STARLINK-6190,PAYLOAD,2023-12-11 05:43:15,14.98338033,0.0002643,69.9993,270.4862,278.8081,81.2779,-1.863e-05,-3.15e-06,0.0,0 STARLINK-6190,1 56774U 23078H   23345.23837937 -.00000315  00000-0 -18630-4 0  9991,2 56774  69.9993 270.4862 0002643 278.8081  81.2779 14.98338033 29708,6950.168,96.106,573.87,570.196,0.0
56774.0,STARLINK-6190,PAYLOAD,2023-12-11 20:08:28,14.98331834,0.000242,69.9998,268.9719,274.6806,85.4077,-1.3858e-05,-2.58e-06,0.0,0 STARLINK-6190,1 56774U 23078H   23345.83922290 -.00000258  00000-0 -13858-4 0  9997,2 56774  69.9998 268.9719 0002420 274.6806  85.4077 14.98331834 29796,6950.187,96.107,573.734,570.37,0.0
56774.0,STARLINK-6190,PAYLOAD,2023-12-11 21:44:36,14.98331325,0.0002431,69.9998,268.8037,273.3291,86.7589,-1.6893e-05,-2.94e-06,0.0,0 STARLINK-6190,1 56774U 23078H   23345.90598297 -.00000294  00000-0 -16893-4 0  9993,2 56774  69.9998 268.8037 0002431 273.3291  86.7589 14.98331325 29544,6950.189,96.107,573.743,570.364,0.0
56774.0,STARLINK-6190,PAYLOAD,2023-12-12 04:09:09,14.98328667,0.0002579,69.9997,268.1306,274.1884,85.898,-1.4957e-05,-2.71e-06,0.0,0 STARLINK-6190,1 56774U 23078H   23346.17302379 -.00000271  00000-0 -14957-4 0  9991,2 56774  69.9997 268.1306 0002579 274.1884  85.8980 14.98328667 29589,6950.197,96.107,573.854,570.27,0.0
56774.0,STARLINK-6190,PAYLOAD,2023-12-12 20:10:29,14.9833255,0.0002668,69.9991,266.4471,270.3855,89.6998,-4.6365e-05,-6.46e-06,0.0,0 STARLINK-6190,1 56774U 23078H   23346.84062180 -.00000646  00000-0 -46365-4 0  9992,2 56774  69.9991 266.4471 0002668 270.3855  89.6998 14.98332550 29949,6950.185,96.107,573.904,570.196,0.0
56774.0,STARLINK-6190,PAYLOAD,2023-12-12 21:46:37,14.98332423,0.0002387,69.9998,266.2792,261.0188,99.0701,7.9897e-06,2e-08,0.0,0 STARLINK-6190,1 56774U 23078H   23346.90737980  .00000002  00000-0  79897-5 0  9997,2 56774  69.9998 266.2792 0002387 261.0188  99.0701 14.98332423 29692,6950.185,96.107,573.709,570.391,0.0
56774.0,STARLINK-6190,PAYLOAD,2023-12-13 02:35:00,14.98342823,0.0002229,70.001,265.7771,234.9464,125.1486,0.00013048,1.465e-05,0.0,0 STARLINK-6190,1 56774U 23078H   23347.10764911  .00001465  00000-0  13048-3 0  9992,2 56774  70.0010 265.7771 0002229 234.9464 125.1486 14.98342823 29980,6950.153,96.106,573.567,570.469,0.0
56774.0,STARLINK-6190,PAYLOAD,2023-12-13 04:11:08,14.9834396,0.000225,70.001,265.609,236.1055,123.989,0.00013764,1.55e-05,0.0,0 STARLINK-6190,1 56774U 23078H   23347.17440761  .00001550  00000-0  13764-3 0  9993,2 56774  70.0010 265.6090 0002250 236.1055 123.9890 14.98343960 29738,6950.15,96.106,573.579,570.451,0.0
56774.0,STARLINK-6190,PAYLOAD,2023-12-13 20:12:30,14.98325288,0.0002481,70.0037,263.9293,212.9642,147.1363,3.411e-05,3.14e-06,0.0,0 STARLINK-6190,1 56774U 23078H   23347.84201916  .00000314  00000-0  34110-4 0  9990,2 56774  70.0037 263.9293 0002481 212.9642 147.1363 14.98325288 30090,6950.207,96.107,573.797,570.348,0.0
56774.0,STARLINK-6190,PAYLOAD,2023-12-13 21:48:38,14.98326437,0.0002334,70.0009,263.7567,236.9809,123.1126,8.3495e-06,7e-08,0.0,0 STARLINK-6190,1 56774U 23078H   23347.90877926  .00000007  00000-0  83495-5 0  9997,2 56774  70.0009 263.7567 0002334 236.9809 123.1126 14.98326437 29848,6950.204,96.107,573.691,570.447,0.0
56774.0,STARLINK-6190,PAYLOAD,2023-12-14 04:13:11,14.98324323,0.0002368,69.9998,263.0821,273.2944,86.7944,-4.399e-05,-6.18e-06,0.0,0 STARLINK-6190,1 56774U 23078H   23348.17582419 -.00000618  00000-0 -43990-4 0  9992,2 56774  69.9998 263.0821 0002368 273.2944  86.7944 14.98324323 29887,6950.21,96.107,573.721,570.43,0.0
56774.0,STARLINK-6190,PAYLOAD,2023-12-14 20:14:31,14.98335466,0.0002374,69.9994,261.3958,251.6572,108.4329,-0.00011947,-1.518e-05,0.0,0 STARLINK-6190,1 56774U 23078H   23348.84341928 -.00001518  00000-0 -11947-3 0  9990,2 56774  69.9994 261.3958 0002374 251.6572 108.4329 14.98335466 30240,6950.176,96.107,573.691,570.391,0.0
56774.0,STARLINK-6190,PAYLOAD,2023-12-14 21:50:39,14.98335396,0.0002376,69.9993,261.2277,251.8014,108.2886,-0.00011661,-1.484e-05,0.0,0 STARLINK-6190,1 56774U 23078H   23348.91017899 -.00001484  00000-0 -11661-3 0  9990,2 56774  69.9993 261.2277 0002376 251.8014 108.2886 14.98335396 29995,6950.176,96.107,573.693,570.39,0.0
56774.0,STARLINK-6190,PAYLOAD,2023-12-15 04:15:11,14.98337433,0.0002282,69.9996,260.5555,251.1292,108.962,-8.4544e-05,-1.102e-05,0.0,0 STARLINK-6190,1 56774U 23078H   23349.17721610 -.00001102  00000-0 -84544-4 0  9990,2 56774  69.9996 260.5555 0002282 251.1292 108.9620 14.98337433 30030,6950.17,96.107,573.621,570.449,0.0
56774.0,STARLINK-6190,PAYLOAD,2023-12-15 20:16:32,14.98327982,0.0002419,69.9998,258.8715,246.3862,113.7043,0.00010662,1.179e-05,0.0,0 STARLINK-6190,1 56774U 23078H   23349.84481564  .00001179  00000-0  10662-3 0  9996,2 56774  69.9998 258.8715 0002419 246.3862 113.7043 14.98327982 30391,6950.199,96.107,573.745,570.383,0.0
56774.0,STARLINK-6190,PAYLOAD,2023-12-15 21:52:40,14.98328408,0.0002382,69.9999,258.703,245.8941,114.1969,0.00011595,1.291e-05,0.0,0 STARLINK-6190,1 56774U 23078H   23349.91157519  .00001291  00000-0  11595-3 0  9995,2 56774  69.9999 258.7030 0002382 245.8941 114.1969 14.98328408 30141,6950.198,96.107,573.718,570.407,0.0
56774.0,STARLINK-6190,PAYLOAD,2023-12-16 02:41:03,14.98340435,0.0002774,69.9993,258.2006,257.7692,102.3156,0.00021467,2.47e-05,0.0,0 STARLINK-6190,1 56774U 23078H   23350.11184455  .00002470  00000-0  21467-3 0  9997,2 56774  69.9993 258.2006 0002774 257.7692 102.3156 14.98340435 30436,6950.161,96.106,573.954,570.098,0.0
56774.0,STARLINK-6190,PAYLOAD,2023-12-16 04:17:11,14.98341565,0.0002852,69.999,258.0318,261.8717,98.2118,0.00021642,2.491e-05,0.0,0 STARLINK-6190,1 56774U 23078H   23350.17860351  .00002491  00000-0  21642-3 0  9997,2 56774  69.9990 258.0318 0002852 261.8717  98.2118 14.98341565 30186,6950.157,96.106,574.004,570.04,0.0
56774.0,STARLINK-6190,PAYLOAD,2023-12-16 20:18:33,14.98325636,0.0002677,70.003,256.3562,226.819,133.2746,-4.8702e-05,-6.74e-06,0.0,0 STARLINK-6190,1 56774U 23078H   23350.84622108 -.00000674  00000-0 -48702-4 0  9997,2 56774  70.0030 256.3562 0002677 226.8190 133.2746 14.98325636 30545,6950.206,96.107,573.932,570.211,0.0
56774.0,STARLINK-6190,PAYLOAD,2023-12-16 21:54:41,14.98322864,0.0003014,69.999,256.1803,261.8442,98.2375,-0.00011629,-1.48e-05,0.0,0 STARLINK-6190,1 56774U 23078H   23350.91298444 -.00001480  00000-0 -11629-3 0  9990,2 56774  69.9990 256.1803 0003014 261.8442  98.2375 14.98322864 30298,6950.215,96.107,574.175,569.985,0.0
56774.0,STARLINK-6190,PAYLOAD,2023-12-17 04:19:14,14.98324812,0.0002735,69.9992,255.5062,264.5916,95.4931,-7.3568e-05,-9.71e-06,0.0,0 STARLINK-6190,1 56774U 23078H   23351.18002431 -.00000971  00000-0 -73568-4 0  9994,2 56774  69.9992 255.5062 0002735 264.5916  95.4931 14.98324812 30332,6950.209,96.107,573.975,570.173,0.0
56774.0,STARLINK-6190,PAYLOAD,2023-12-17 20:20:34,14.98337841,0.0002618,69.9999,253.8225,271.0669,89.019,-5.7473e-05,-7.79e-06,0.0,0 STARLINK-6190,1 56774U 23078H   23351.84761630 -.00000779  00000-0 -57473-4 0  9993,2 56774  69.9999 253.8225 0002618 271.0669  89.0190 14.98337841 30690,6950.169,96.106,573.853,570.214,0.0
56774.0,STARLINK-6190,PAYLOAD,2023-12-17 21:56:42,14.98338448,0.0002555,69.9997,253.6543,268.8486,91.2381,-4.5292e-05,-6.33e-06,0.0,0 STARLINK-6190,1 56774U 23078H   23351.91437506 -.00000633  00000-0 -45292-4 0  9998,2 56774  69.9997 253.6543 0002555 268.8486  91.2381 14.98338448 30444,6950.167,96.106,573.808,570.256,0.0
56774.0,STARLINK-6190,PAYLOAD,2023-12-18 01:08:57,14.98342725,0.0002509,69.9998,253.3185,252.9732,107.1152,1.0134e-05,2.8e-07,0.0,0 STARLINK-6190,1 56774U 23078H   23352.04788934  .00000028  00000-0  10134-4 0  9990,2 56774  69.9998 253.3185 0002509 252.9732 107.1152 14.98342725 30728,6950.154,96.106,573.762,570.275,0.0
56774.0,STARLINK-6190,PAYLOAD,2023-12-18 18:46:27,14.98321285,0.0002301,70.0017,251.4689,230.8955,129.1999,0.00013107,1.471e-05,0.0,0 STARLINK-6190,1 56774U 23078H   23352.78225774  .00001471  00000-0  13107-3 0  9994,2 56774  70.0017 251.4689 0002301 230.8955 129.1999 14.98321285 30836,6950.22,96.108,573.684,570.486,0.0
56774.0,STARLINK-6190,PAYLOAD,2023-12-18 21:58:44,14.98310994,0.0002408,69.9998,251.1288,247.9776,112.1128,2.2321e-05,1.73e-06,0.0,0 STARLINK-6190,1 56774U 23078H   23352.91578770  .00000173  00000-0  22321-4 0  9993,2 56774  69.9998 251.1288 0002408 247.9776 112.1128 14.98310994 30595,6950.252,96.108,573.79,570.443,0.0
56774.0,STARLINK-6190,PAYLOAD,2023-12-19 02:47:08,14.98317071,0.0002403,69.9998,250.6243,266.7974,93.291,7.2535e-05,7.72e-06,0.0,0 STARLINK-6190,1 56774U 23078H   23353.11606573  .00000772  00000-0  72535-4 0  9996,2 56774  69.9998 250.6243 0002403 266.7974  93.2910 14.98317071 30887,6950.233,96.108,573.768,570.428,0.0
56774.0,STARLINK-6190,PAYLOAD,2023-12-19 20:24:36,14.98327739,0.0002174,70.0024,248.7779,234.6603,125.4353,-2.5731e-05,-4e-06,0.0,0 STARLINK-6190,1 56774U 23078H   23353.85042279 -.00000400  00000-0 -25731-4 0  9990,2 56774  70.0024 248.7779 0002174 234.6603 125.4353 14.98327739 30993,6950.2,96.107,573.576,570.554,0.0
56774.0,STARLINK-6190,PAYLOAD,2023-12-20 02:49:08,14.98334577,0.0002676,69.9994,248.1004,261.1958,98.8898,-4.0628e-05,-5.78e-06,0.0,0 STARLINK-6190,1 56774U 23078H   23354.11745880 -.00000578  00000-0 -40628-4 0  9996,2 56774  69.9994 248.1004 0002676 261.1958  98.8898 14.98334577 31037,6950.179,96.107,573.904,570.184,0.0
